CCSDS_OMM_VERS = 2.0
CREATION_DATE  = 
ORIGINATOR     = 

OBJECT_NAME    = TWILIGHT W
OBJECT_ID      = 2026-004W
CENTER_NAME    = EARTH
REF_FRAME      = TEME
TIME_SYSTEM    = UTC
MEAN_ELEMENT_THEORY = SGP/SGP4

EPOCH          = 2026-01-25T11:15:42.517440
MEAN_MOTION    = 14.87710592
ECCENTRICITY   = .0003956
INCLINATION    = 97.7978
RA_OF_ASC_NODE = 26.4018
ARG_OF_PERICENTER = 236.4538
MEAN_ANOMALY   = 123.6301

EPHEMERIS_TYPE = 0
CLASSIFICATION_TYPE = U
NORAD_CAT_ID   = 67383
ELEMENT_SET_NO = 999
REV_AT_EPOCH   = 206
BSTAR          = .6526E-3
MEAN_MOTION_DOT = .5896E-4
MEAN_MOTION_DDOT = 0

CCSDS_OMM_VERS = 2.0
CREATION_DATE  = 
ORIGINATOR     = 

OBJECT_NAME    = TWILIGHT X
OBJECT_ID      = 2026-004X
CENTER_NAME    = EARTH
REF_FRAME      = TEME
TIME_SYSTEM    = UTC
MEAN_ELEMENT_THEORY = SGP/SGP4

EPOCH          = 2026-01-25T11:10:49.628352
MEAN_MOTION    = 14.88153705
ECCENTRICITY   = .0002937
INCLINATION    = 97.7977
RA_OF_ASC_NODE = 26.4062
ARG_OF_PERICENTER = 218.7117
MEAN_ANOMALY   = 141.3890

EPHEMERIS_TYPE = 0
CLASSIFICATION_TYPE = U
NORAD_CAT_ID   = 67384
ELEMENT_SET_NO = 999
REV_AT_EPOCH   = 206
BSTAR          = .11339E-2
MEAN_MOTION_DOT = .10404E-3
MEAN_MOTION_DDOT = 0

CCSDS_OMM_VERS = 2.0
CREATION_DATE  = 
ORIGINATOR     = 

OBJECT_NAME    = TWILIGHT Y
OBJECT_ID      = 2026-004Y
CENTER_NAME    = EARTH
REF_FRAME      = TEME
TIME_SYSTEM    = UTC
MEAN_ELEMENT_THEORY = SGP/SGP4

EPOCH          = 2026-01-25T11:09:41.416416
MEAN_MOTION    = 14.88237032
ECCENTRICITY   = .0002857
INCLINATION    = 97.7988
RA_OF_ASC_NODE = 26.4081
ARG_OF_PERICENTER = 211.2097
MEAN_ANOMALY   = 148.8950

EPHEMERIS_TYPE = 0
CLASSIFICATION_TYPE = U
NORAD_CAT_ID   = 67385
ELEMENT_SET_NO = 999
REV_AT_EPOCH   = 206
BSTAR          = .10936E-2
MEAN_MOTION_DOT = .10052E-3
MEAN_MOTION_DDOT = 0

CCSDS_OMM_VERS = 2.0
CREATION_DATE  = 
ORIGINATOR     = 

OBJECT_NAME    = TWILIGHT Z
OBJECT_ID      = 2026-004Z
CENTER_NAME    = EARTH
REF_FRAME      = TEME
TIME_SYSTEM    = UTC
MEAN_ELEMENT_THEORY = SGP/SGP4

EPOCH          = 2026-01-25T09:30:56.723904
MEAN_MOTION    = 14.88295551
ECCENTRICITY   = .0001733
INCLINATION    = 97.7968
RA_OF_ASC_NODE = 26.3432
ARG_OF_PERICENTER = 208.9514
MEAN_ANOMALY   = 151.1607

EPHEMERIS_TYPE = 0
CLASSIFICATION_TYPE = U
NORAD_CAT_ID   = 67386
ELEMENT_SET_NO = 999
REV_AT_EPOCH   = 205
BSTAR          = .48734E-3
MEAN_MOTION_DOT = .4452E-4
MEAN_MOTION_DDOT = 0

CCSDS_OMM_VERS = 2.0
CREATION_DATE  = 
ORIGINATOR     = 

OBJECT_NAME    = TWILIGHT AA
OBJECT_ID      = 2026-004AA
CENTER_NAME    = EARTH
REF_FRAME      = TEME
TIME_SYSTEM    = UTC
MEAN_ELEMENT_THEORY = SGP/SGP4

EPOCH          = 2026-01-25T09:27:51.292224
MEAN_MOTION    = 14.88574860
ECCENTRICITY   = .000288
INCLINATION    = 97.8019
RA_OF_ASC_NODE = 26.3475
ARG_OF_PERICENTER = 173.0983
MEAN_ANOMALY   = 187.0274

EPHEMERIS_TYPE = 0
CLASSIFICATION_TYPE = U
NORAD_CAT_ID   = 67387
ELEMENT_SET_NO = 999
REV_AT_EPOCH   = 205
BSTAR          = .72557E-3
MEAN_MOTION_DOT = .6704E-4
MEAN_MOTION_DDOT = 0

CCSDS_OMM_VERS = 2.0
CREATION_DATE  = 
ORIGINATOR     = 

OBJECT_NAME    = TWILIGHT AB
OBJECT_ID      = 2026-004AB
CENTER_NAME    = EARTH
REF_FRAME      = TEME
TIME_SYSTEM    = UTC
MEAN_ELEMENT_THEORY = SGP/SGP4

EPOCH          = 2026-01-25T09:26:08.763936
MEAN_MOTION    = 14.88677996
ECCENTRICITY   = .0002514
INCLINATION    = 97.8008
RA_OF_ASC_NODE = 26.3487
ARG_OF_PERICENTER = 158.1302
MEAN_ANOMALY   = 202.0022

EPHEMERIS_TYPE = 0
CLASSIFICATION_TYPE = U
NORAD_CAT_ID   = 67388
ELEMENT_SET_NO = 999
REV_AT_EPOCH   = 205
BSTAR          = .67189E-3
MEAN_MOTION_DOT = .6219E-4
MEAN_MOTION_DDOT = 0

CCSDS_OMM_VERS = 2.0
CREATION_DATE  = 
ORIGINATOR     = 

OBJECT_NAME    = TWILIGHT AC
OBJECT_ID      = 2026-004AC
CENTER_NAME    = EARTH
REF_FRAME      = TEME
TIME_SYSTEM    = UTC
MEAN_ELEMENT_THEORY = SGP/SGP4

EPOCH          = 2026-01-25T11:12:59.180832
MEAN_MOTION    = 15.17005928
ECCENTRICITY   = .0005185
INCLINATION    = 97.4571
RA_OF_ASC_NODE = 26.6133
ARG_OF_PERICENTER = 106.3362
MEAN_ANOMALY   = 253.8442

EPHEMERIS_TYPE = 0
CLASSIFICATION_TYPE = U
NORAD_CAT_ID   = 67389
ELEMENT_SET_NO = 999
REV_AT_EPOCH   = 210
BSTAR          = .85095E-3
MEAN_MOTION_DOT = .16781E-3
MEAN_MOTION_DDOT = 0

CCSDS_OMM_VERS = 2.0
CREATION_DATE  = 
ORIGINATOR     = 

OBJECT_NAME    = TWILIGHT AD
OBJECT_ID      = 2026-004AD
CENTER_NAME    = EARTH
REF_FRAME      = TEME
TIME_SYSTEM    = UTC
MEAN_ELEMENT_THEORY = SGP/SGP4

EPOCH          = 2026-01-25T09:37:18.623136
MEAN_MOTION    = 15.17017544
ECCENTRICITY   = .0005436
INCLINATION    = 97.4573
RA_OF_ASC_NODE = 26.5504
ARG_OF_PERICENTER = 106.0270
MEAN_ANOMALY   = 254.1562

EPHEMERIS_TYPE = 0
CLASSIFICATION_TYPE = U
NORAD_CAT_ID   = 67390
ELEMENT_SET_NO = 999
REV_AT_EPOCH   = 209
BSTAR          = .61457E-3
MEAN_MOTION_DOT = .12098E-3
MEAN_MOTION_DDOT = 0

CCSDS_OMM_VERS = 2.0
CREATION_DATE  = 
ORIGINATOR     = 

OBJECT_NAME    = TWILIGHT AE
OBJECT_ID      = 2026-004AE
CENTER_NAME    = EARTH
REF_FRAME      = TEME
TIME_SYSTEM    = UTC
MEAN_ELEMENT_THEORY = SGP/SGP4

EPOCH          = 2026-01-25T11:09:42.880032
MEAN_MOTION    = 15.17191914
ECCENTRICITY   = .0006817
INCLINATION    = 97.4522
RA_OF_ASC_NODE = 26.6080
ARG_OF_PERICENTER = 101.1706
MEAN_ANOMALY   = 259.0294

EPHEMERIS_TYPE = 0
CLASSIFICATION_TYPE = U
NORAD_CAT_ID   = 67391
ELEMENT_SET_NO = 999
REV_AT_EPOCH   = 210
BSTAR          = .39716E-3
MEAN_MOTION_DOT = .7831E-4
MEAN_MOTION_DDOT = 0

CCSDS_OMM_VERS = 2.0
CREATION_DATE  = 
ORIGINATOR     = 

OBJECT_NAME    = TWILIGHT AF
OBJECT_ID      = 2026-004AF
CENTER_NAME    = EARTH
REF_FRAME      = TEME
TIME_SYSTEM    = UTC
MEAN_ELEMENT_THEORY = SGP/SGP4

EPOCH          = 2026-01-25T11:07:22.499904
MEAN_MOTION    = 15.17752182
ECCENTRICITY   = .0007238
INCLINATION    = 97.4499
RA_OF_ASC_NODE = 26.6054
ARG_OF_PERICENTER = 106.6903
MEAN_ANOMALY   = 253.5126

EPHEMERIS_TYPE = 0
CLASSIFICATION_TYPE = U
NORAD_CAT_ID   = 67392
ELEMENT_SET_NO = 999
REV_AT_EPOCH   = 210
BSTAR          = .51168E-2
MEAN_MOTION_DOT = .104697E-2
MEAN_MOTION_DDOT = 0

CCSDS_OMM_VERS = 2.0
CREATION_DATE  = 
ORIGINATOR     = 

OBJECT_NAME    = TWILIGHT AG
OBJECT_ID      = 2026-004AG
CENTER_NAME    = EARTH
REF_FRAME      = TEME
TIME_SYSTEM    = UTC
MEAN_ELEMENT_THEORY = SGP/SGP4

EPOCH          = 2026-01-25T06:21:03.888576
MEAN_MOTION    = 15.17781384
ECCENTRICITY   = .00072984
INCLINATION    = 97.4528
RA_OF_ASC_NODE = 26.4186
ARG_OF_PERICENTER = 116.7014
MEAN_ANOMALY   = 243.4968

EPHEMERIS_TYPE = 0
CLASSIFICATION_TYPE = U
NORAD_CAT_ID   = 67393
ELEMENT_SET_NO = 999
REV_AT_EPOCH   = 207
BSTAR          = .25493775E-2
MEAN_MOTION_DOT = .518E-3
MEAN_MOTION_DDOT = 0

CCSDS_OMM_VERS = 2.0
CREATION_DATE  = 
ORIGINATOR     = 

OBJECT_NAME    = TWILIGHT AH
OBJECT_ID      = 2026-004AH
CENTER_NAME    = EARTH
REF_FRAME      = TEME
TIME_SYSTEM    = UTC
MEAN_ELEMENT_THEORY = SGP/SGP4

EPOCH          = 2026-01-25T09:22:25.235904
MEAN_MOTION    = 15.18148535
ECCENTRICITY   = .0010788
INCLINATION    = 97.4467
RA_OF_ASC_NODE = 26.5440
ARG_OF_PERICENTER = 110.5493
MEAN_ANOMALY   = 249.6900

EPHEMERIS_TYPE = 0
CLASSIFICATION_TYPE = U
NORAD_CAT_ID   = 67394
ELEMENT_SET_NO = 999
REV_AT_EPOCH   = 209
BSTAR          = .48402E-3
MEAN_MOTION_DOT = .9836E-4
MEAN_MOTION_DDOT = 0

CCSDS_OMM_VERS = 2.0
CREATION_DATE  = 
ORIGINATOR     = 

OBJECT_NAME    = TWILIGHT AJ
OBJECT_ID      = 2026-004AJ
CENTER_NAME    = EARTH
REF_FRAME      = TEME
TIME_SYSTEM    = UTC
MEAN_ELEMENT_THEORY = SGP/SGP4

EPOCH          = 2026-01-25T11:14:38.724000
MEAN_MOTION    = 14.87768330
ECCENTRICITY   = .0004074
INCLINATION    = 97.8006
RA_OF_ASC_NODE = 26.4057
ARG_OF_PERICENTER = 228.3394
MEAN_ANOMALY   = 131.7474

EPHEMERIS_TYPE = 0
CLASSIFICATION_TYPE = U
NORAD_CAT_ID   = 67395
ELEMENT_SET_NO = 999
REV_AT_EPOCH   = 205
BSTAR          = .42287E-3
MEAN_MOTION_DOT = .3806E-4
MEAN_MOTION_DDOT = 0

CCSDS_OMM_VERS = 2.0
CREATION_DATE  = 
ORIGINATOR     = 

OBJECT_NAME    = TWILIGHT AK
OBJECT_ID      = 2026-004AK
CENTER_NAME    = EARTH
REF_FRAME      = TEME
TIME_SYSTEM    = UTC
MEAN_ELEMENT_THEORY = SGP/SGP4

EPOCH          = 2026-01-25T09:27:42.303168
MEAN_MOTION    = 15.17772055
ECCENTRICITY   = .0008799
INCLINATION    = 97.4505
RA_OF_ASC_NODE = 26.5465
ARG_OF_PERICENTER = 109.9008
MEAN_ANOMALY   = 250.3175

EPHEMERIS_TYPE = 0
CLASSIFICATION_TYPE = U
NORAD_CAT_ID   = 67396
ELEMENT_SET_NO = 999
REV_AT_EPOCH   = 209
BSTAR          = .68252E-3
MEAN_MOTION_DOT = .13748E-3
MEAN_MOTION_DDOT = 0

CCSDS_OMM_VERS = 2.0
CREATION_DATE  = 
ORIGINATOR     = 

OBJECT_NAME    = TWILIGHT AL
OBJECT_ID      = 2026-004AL
CENTER_NAME    = EARTH
REF_FRAME      = TEME
TIME_SYSTEM    = UTC
MEAN_ELEMENT_THEORY = SGP/SGP4

EPOCH          = 2026-01-25T09:30:12.737664
MEAN_MOTION    = 15.17613708
ECCENTRICITY   = .0007838
INCLINATION    = 97.4526
RA_OF_ASC_NODE = 26.5483
ARG_OF_PERICENTER = 110.5397
MEAN_ANOMALY   = 249.6679

EPHEMERIS_TYPE = 0
CLASSIFICATION_TYPE = U
NORAD_CAT_ID   = 67397
ELEMENT_SET_NO = 999
REV_AT_EPOCH   = 209
BSTAR          = .661E-3
MEAN_MOTION_DOT = .13249E-3
MEAN_MOTION_DDOT = 0

